NORAD_CAT_ID,OBJECT_NAME,OBJECT_TYPE,EPOCH,MEAN_MOTION,ECCENTRICITY,INCLINATION,RA_OF_ASC_NODE,ARG_OF_PERICENTER,MEAN_ANOMALY,BSTAR,MEAN_MOTION_DOT,MEAN_MOTION_DDOT,TLE_LINE0,TLE_LINE1,TLE_LINE2,SEMIMAJOR_AXIS,PERIOD,APOGEE,PERIGEE,DECAYED
55924.0,STARLINK-5849,PAYLOAD,2024-06-30 21:05:32,14.98337998,0.000336,69.9994,39.8256,269.1617,90.9157,-5.9839e-05,-8.07e-06,0.0,0 STARLINK-5849,1 55924U 23037L   24182.87885154 -.00000807  00000-0 -59839-4 0  9998,2 55924  69.9994  39.8256 0003360 269.1617  90.9157 14.98337998 71921,6950.168,96.106,574.368,569.698,0.0
55924.0,STARLINK-5849,PAYLOAD,2024-07-01 14:43:01,14.98325186,0.0003358,69.9998,37.9737,271.937,88.1404,0.00015488,1.755e-05,0.0,0 STARLINK-5849,1 55924U 23037L   24183.61321208  .00001755  00000-0  15488-3 0  9998,2 55924  69.9998  37.9737 0003358 271.9370  88.1404 14.98325186 71696,6950.208,96.107,574.407,569.739,0.0
55924.0,STARLINK-5849,PAYLOAD,2024-07-01 21:07:33,14.98328884,0.0003348,69.9999,37.3003,271.7205,88.3571,0.00018208,2.08e-05,0.0,0 STARLINK-5849,1 55924U 23037L   24183.88024947  .00002080  00000-0  18208-3 0  9992,2 55924  69.9999  37.3003 0003348 271.7205  88.3571 14.98328884 72079,6950.196,96.107,574.388,569.734,0.0
55924.0,STARLINK-5849,PAYLOAD,2024-07-02 14:45:02,14.98331041,0.0003188,70.0004,35.4484,271.7725,88.3069,-3.9634e-05,-5.66e-06,0.0,0 STARLINK-5849,1 55924U 23037L   24184.61461413 -.00000566  00000-0 -39634-4 0  9993,2 55924  70.0004  35.4484 0003188 271.7725  88.3069 14.98331041 71845,6950.19,96.107,574.27,569.839,0.0
55924.0,STARLINK-5849,PAYLOAD,2024-07-02 21:09:34,14.98332244,0.000318,70.0003,34.7753,271.353,88.7265,-3.2203e-05,-4.77e-06,0.0,0 STARLINK-5849,1 55924U 23037L   24184.88165273 -.00000477  00000-0 -32203-4 0  9993,2 55924  70.0003  34.7753 0003180 271.3530  88.7265 14.98332244 72228,6950.186,96.107,574.261,569.841,0.0
55924.0,STARLINK-5849,PAYLOAD,2024-07-03 21:11:35,14.98331031,0.0003126,70.0004,32.2503,271.3287,88.7514,-2.3045e-05,-3.68e-06,0.0,0 STARLINK-5849,1 55924U 23037L   24185.88305110 -.00000368  00000-0 -23045-4 0  9993,2 55924  70.0004  32.2503 0003126 271.3287  88.7514 14.98331031 72370,6950.19,96.107,574.227,569.882,0.0
55924.0,STARLINK-5849,PAYLOAD,2024-07-04 14:49:04,14.98328754,0.0003094,70.0003,30.3991,266.464,93.6165,-8.647e-09,-9.3e-07,0.0,0 STARLINK-5849,1 55924U 23037L   24186.61741083 -.00000093  00000-0 -86470-8 0  9998,2 55924  70.0003  30.3991 0003094 266.4640  93.6165 14.98328754 72141,6950.197,96.107,574.212,569.911,0.0
55924.0,STARLINK-5849,PAYLOAD,2024-07-04 21:13:36,14.98328953,0.0003109,70.0003,29.7257,266.7479,93.3325,1.9952e-06,-6.9e-07,0.0,0 STARLINK-5849,1 55924U 23037L   24186.88445081 -.00000069  00000-0  19952-5 0  9996,2 55924  70.0003  29.7257 0003109 266.7479  93.3325 14.98328953 72526,6950.196,96.107,574.222,569.9,0.0
55924.0,STARLINK-5849,PAYLOAD,2024-07-04 22:49:44,14.98329741,0.0003102,70.0003,29.5573,267.0091,93.0713,1.1104e-05,3.9e-07,0.0,0 STARLINK-5849,1 55924U 23037L   24186.95121009  .00000039  00000-0  11104-4 0  9991,2 55924  70.0003  29.5573 0003102 267.0091  93.0713 14.98329741 72199,6950.194,96.107,574.215,569.903,0.0
55924.0,STARLINK-5849,PAYLOAD,2024-07-05 14:51:05,14.9832953,0.0003098,70.0004,27.8741,266.9721,93.1083,1.4475e-05,8e-07,0.0,0 STARLINK-5849,1 55924U 23037L   24187.61881003  .00000080  00000-0  14475-4 0  9992,2 55924  70.0004  27.8741 0003098 266.9721  93.1083 14.98329530 72298,6950.194,96.107,574.213,569.906,0.0
55924.0,STARLINK-5849,PAYLOAD,2024-07-05 21:15:37,14.98331111,0.0003136,70.0003,27.2008,267.8796,92.2004,2.1297e-05,1.61e-06,0.0,0 STARLINK-5849,1 55924U 23037L   24187.88584890  .00000161  00000-0  21297-4 0  9995,2 55924  70.0003  27.2008 0003136 267.8796  92.2004 14.98331111 72338,6950.189,96.107,574.234,569.875,0.0
55924.0,STARLINK-5849,PAYLOAD,2024-07-05 22:51:45,14.98331709,0.0003139,70.0003,27.0325,267.9853,92.0946,2.7161e-05,2.31e-06,0.0,0 STARLINK-5849,1 55924U 23037L   24187.95260830  .00000231  00000-0  27161-4 0  9992,2 55924  70.0003  27.0325 0003139 267.9853  92.0946 14.98331709 72680,6950.188,96.107,574.234,569.871,0.0
55924.0,STARLINK-5849,PAYLOAD,2024-07-06 13:16:58,14.9832829,0.0003275,69.9998,25.5168,269.3193,90.759,-2.6686e-05,-4.11e-06,0.0,0 STARLINK-5849,1 55924U 23037L   24188.55345154 -.00000411  00000-0 -26686-4 0  9995,2 55924  69.9998  25.5168 0003275 269.3193  90.7590 14.98328290 72436,6950.198,96.107,574.339,569.787,0.0
55924.0,STARLINK-5849,PAYLOAD,2024-07-06 21:17:38,14.9832983,0.0003167,70.0003,24.6764,269.5251,90.5546,7.8566e-06,1e-08,0.0,0 STARLINK-5849,1 55924U 23037L   24188.88724988  .00000001  00000-0  78566-5 0  9995,2 55924  70.0003  24.6764 0003167 269.5251  90.5546 14.98329830 72480,6950.193,96.107,574.26,569.857,0.0
55924.0,STARLINK-5849,PAYLOAD,2024-07-06 22:53:46,14.98330116,0.0003165,70.0003,24.5081,269.5461,90.5335,1.089e-05,3.7e-07,0.0,0 STARLINK-5849,1 55924U 23037L   24188.95400960  .00000037  00000-0  10890-4 0  9998,2 55924  70.0003  24.5081 0003165 269.5461  90.5335 14.98330116 72836,6950.193,96.107,574.257,569.858,0.0
55924.0,STARLINK-5849,PAYLOAD,2024-07-07 13:18:58,14.9833114,0.0003242,70.0002,22.9923,270.4676,89.6112,-1.2347e-05,-2.4e-06,0.0,0 STARLINK-5849,1 55924U 23037L   24189.55484939 -.00000240  00000-0 -12347-4 0  9990,2 55924  70.0002  22.9923 0003242 270.4676  89.6112 14.98331140 72589,6950.189,96.107,574.308,569.801,0.0
55924.0,STARLINK-5849,PAYLOAD,2024-07-07 22:55:47,14.98334352,0.000323,70.0003,21.9823,270.4715,89.6074,2.4627e-05,2.01e-06,0.0,0 STARLINK-5849,1 55924U 23037L   24189.95540572  .00000201  00000-0  24627-4 0  9999,2 55924  70.0003  21.9823 0003230 270.4715  89.6074 14.98334352 72988,6950.179,96.107,574.289,569.8,0.0
55924.0,STARLINK-5849,PAYLOAD,2024-07-08 13:20:59,14.98331038,0.0003165,70.0005,20.4672,270.7856,89.2941,3.5e-05,3.25e-06,0.0,0 STARLINK-5849,1 55924U 23037L   24190.55624660  .00000325  00000-0  35000-4 0  9992,2 55924  70.0005  20.4672 0003165 270.7856  89.2941 14.98331038 72732,6950.19,96.107,574.254,569.855,0.0
55924.0,STARLINK-5849,PAYLOAD,2024-07-08 21:21:39,14.98334167,0.0003171,70.0004,19.6257,270.6469,89.4326,5.0184e-05,5.06e-06,0.0,0 STARLINK-5849,1 55924U 23037L   24190.89004365  .00000506  00000-0  50184-4 0  9994,2 55924  70.0004  19.6257 0003171 270.6469  89.4326 14.98334167 72786,6950.18,96.107,574.249,569.841,0.0
55924.0,STARLINK-5849,PAYLOAD,2024-07-08 22:57:47,14.98334993,0.0003168,70.0005,19.4574,270.6478,89.4318,5.8619e-05,6.07e-06,0.0,0 STARLINK-5849,1 55924U 23037L   24190.95680272  .00000607  00000-0  58619-4 0  9991,2 55924  70.0005  19.4574 0003168 270.6478  89.4318 14.98334993 73131,6950.177,96.107,574.244,569.841,0.0
55924.0,STARLINK-5849,PAYLOAD,2024-07-09 13:23:00,14.98330201,0.0003088,70.0007,17.9426,270.8639,89.2166,-3.1439e-05,-4.68e-06,0.0,0 STARLINK-5849,1 55924U 23037L   24191.55764760 -.00000468  00000-0 -31439-4 0  9991,2 55924  70.0007  17.9426 0003088 270.8639  89.2166 14.98330201 73221,6950.192,96.107,574.203,569.911,0.0
55924.0,STARLINK-5849,PAYLOAD,2024-07-09 14:59:08,14.98330005,0.0003093,70.0007,17.7742,270.8042,89.2763,-3.2906e-05,-4.86e-06,0.0,0 STARLINK-5849,1 55924U 23037L   24191.62440769 -.00000486  00000-0 -32906-4 0  9999,2 55924  70.0007  17.7742 0003093 270.8042  89.2763 14.98330005 72891,6950.193,96.107,574.208,569.908,0.0
55924.0,STARLINK-5849,PAYLOAD,2024-07-09 21:23:41,14.98330034,0.0003039,70.0009,17.1014,267.7603,92.3208,-1.4762e-05,-2.69e-06,0.0,0 STARLINK-5849,1 55924U 23037L   24191.89144689 -.00000269  00000-0 -14762-4 0  9999,2 55924  70.0009  17.1014 0003039 267.7603  92.3208 14.98330034 72933,6950.193,96.107,574.17,569.946,0.0
55924.0,STARLINK-5849,PAYLOAD,2024-07-10 05:24:21,14.98329042,0.0003031,70.0009,16.2597,268.4839,91.5973,-3.3264e-05,-4.9e-06,0.0,0 STARLINK-5849,1 55924U 23037L   24192.22524789 -.00000490  00000-0 -33264-4 0  9994,2 55924  70.0009  16.2597 0003031 268.4839  91.5973 14.98329042 72982,6950.196,96.107,574.167,569.954,0.0
55924.0,STARLINK-5849,PAYLOAD,2024-07-10 23:01:50,14.98329854,0.0003038,70.0008,14.408,268.5368,91.5443,-3.0583e-05,-4.58e-06,0.0,0 STARLINK-5849,1 55924U 23037L   24192.95960722 -.00000458  00000-0 -30583-4 0  9990,2 55924  70.0008  14.4080 0003038 268.5368  91.5443 14.98329854 73437,6950.193,96.107,574.17,569.947,0.0
55924.0,STARLINK-5849,PAYLOAD,2024-07-11 13:27:02,14.98327445,0.0003071,70.0008,12.893,268.2864,91.7944,6.4386e-06,-1.6e-07,0.0,0 STARLINK-5849,1 55924U 23037L   24193.56044790 -.00000016  00000-0  64386-5 0  9994,2 55924  70.0008  12.8930 0003071 268.2864  91.7944 14.98327445 73182,6950.201,96.107,574.2,569.931,0.0
55924.0,STARLINK-5849,PAYLOAD,2024-07-11 18:15:26,14.98328773,0.0003196,70.0004,12.3875,268.7887,91.2906,3.1299e-06,-5.6e-07,0.0,0 STARLINK-5849,1 55924U 23037L   24193.76072728 -.00000056  00000-0  31299-5 0  9999,2 55924  70.0004  12.3875 0003196 268.7887  91.2906 14.98328773 73211,6950.197,96.107,574.283,569.84,0.0
55924.0,STARLINK-5849,PAYLOAD,2024-07-12 05:28:23,14.98329519,0.0003263,70.0003,11.2085,270.3638,89.7147,6.6507e-06,-1.4e-07,0.0,0 STARLINK-5849,1 55924U 23037L   24194.22804656 -.00000014  00000-0  66507-5 0  9998,2 55924  70.0003  11.2085 0003263 270.3638  89.7147 14.98329519 73622,6950.194,96.107,574.327,569.792,0.0
55924.0,STARLINK-5849,PAYLOAD,2024-07-12 11:52:55,14.98327674,0.0003232,69.9999,10.5353,270.2835,89.7954,1.4913e-05,8.5e-07,0.0,0 STARLINK-5849,1 55924U 23037L   24194.49508782  .00000085  00000-0  14913-4 0  9998,2 55924  69.9999  10.5353 0003232 270.2835  89.7954 14.98327674 73320,6950.2,96.107,574.311,569.819,0.0
55924.0,STARLINK-5849,PAYLOAD,2024-07-12 21:29:43,14.9833169,0.0003227,70.0004,9.5257,270.9318,89.1471,6.7917e-05,7.17e-06,0.0,0 STARLINK-5849,1 55924U 23037L   24194.89564395  .00000717  00000-0  67917-4 0  9998,2 55924  70.0004   9.5257 0003227 270.9318  89.1471 14.98331690 73385,6950.188,96.107,574.295,569.81,0.0
